{
  "type": "FeatureCollection",
  "features": [
    {
      "type": "Feature",
      "properties": {
        "norad_id": 43823,
        "name": "GEO-KOMPSAT-2A",
        "group": "weather",
        "lat": -0.02291041570892598,
        "lon": 68.24296338789642,
        "alt_km": 35784.93828434393,
        "timestamp": "2025-12-27T13:34:48.932964+00:00",
        "meta_object_name": "GEO-KOMPSAT-2A",
        "meta_object_id": "2018-100A",
        "meta_epoch": "2025-12-27T06:45:48.663072",
        "meta_mean_motion": 1.00272243,
        "meta_eccentricity": 3.264e-05,
        "meta_inclination": 0.0436,
        "meta_ra_of_asc_node": 168.1676,
        "meta_arg_of_pericenter": 299.8205,
        "meta_mean_anomaly": 217.7331,
        "meta_ephemeris_type": 0,
        "meta_classification_type": "U",
        "meta_norad_cat_id": 43823,
        "meta_element_set_no": 999,
        "meta_rev_at_epoch": 2590,
        "meta_bstar": 0,
        "meta_mean_motion_dot": -3.21e-06,
        "meta_mean_motion_ddot": 0,
        "tle_line1": "1 43823U 18100A   25361.28181323 -.00000321  00000+0  00000+0 0  9990",
        "tle_line2": "2 43823   0.0436 168.1676 0000326 299.8205 217.7331  1.00272243 25907"
      },
      "geometry": {
        "type": "Point",
        "coordinates": [
          68.24296338789642,
          -0.02291041570892598
        ]
      }
    },
    {
      "type": "Feature",
      "properties": {
        "norad_id": 44387,
        "name": "METEOR-M2 2",
        "group": "weather",
        "lat": 31.962214807096345,
        "lon": -24.133032458883196,
        "alt_km": 808.8899942105318,
        "timestamp": "2025-12-27T13:34:48.932978+00:00",
        "meta_object_name": "METEOR-M2 2",
        "meta_object_id": "2019-038A",
        "meta_epoch": "2025-12-27T06:41:04.814880",
        "meta_mean_motion": 14.24299202,
        "meta_eccentricity": 0.00018548,
        "meta_inclination": 98.8992,
        "meta_ra_of_asc_node": 341.1864,
        "meta_arg_of_pericenter": 120.934,
        "meta_mean_anomaly": 239.2021,
        "meta_ephemeris_type": 0,
        "meta_classification_type": "U",
        "meta_norad_cat_id": 44387,
        "meta_element_set_no": 999,
        "meta_rev_at_epoch": 33682,
        "meta_bstar": 0.00029254641,
        "meta_mean_motion_dot": 6.3e-06,
        "meta_mean_motion_ddot": 0,
        "tle_line1": "1 44387U 19038A   25361.27852795  .00000630  00000+0  29255-3 0  9993",
        "tle_line2": "2 44387  98.8992 341.1864 0001854 120.9340 239.2021 14.24299202336823"
      },
      "geometry": {
        "type": "Point",
        "coordinates": [
          -24.133032458883196,
          31.962214807096345
        ]
      }
    },
    {
      "type": "Feature",
      "properties": {
        "norad_id": 47719,
        "name": "ARKTIKA-M 1",
        "group": "weather",
        "lat": 35.35355509459818,
        "lon": 103.02947659782912,
        "alt_km": 17972.83098380818,
        "timestamp": "2025-12-27T13:34:48.932991+00:00",
        "meta_object_name": "ARKTIKA-M 1",
        "meta_object_id": "2021-016A",
        "meta_epoch": "2025-12-27T00:43:39.557280",
        "meta_mean_motion": 2.00630341,
        "meta_eccentricity": 0.72112825,
        "meta_inclination": 63.1774,
        "meta_ra_of_asc_node": 82.0436,
        "meta_arg_of_pericenter": 269.1745,
        "meta_mean_anomaly": 15.5297,
        "meta_ephemeris_type": 0,
        "meta_classification_type": "U",
        "meta_norad_cat_id": 47719,
        "meta_element_set_no": 999,
        "meta_rev_at_epoch": 3533,
        "meta_bstar": 0,
        "meta_mean_motion_dot": -4.6e-07,
        "meta_mean_motion_ddot": 0,
        "tle_line1": "1 47719U 21016A   25361.03031895 -.00000046  00000+0  00000+0 0  9993",
        "tle_line2": "2 47719  63.1774  82.0436 7211282 269.1745  15.5297  2.00630341 35330"
      },
      "geometry": {
        "type": "Point",
        "coordinates": [
          103.02947659782912,
          35.35355509459818
        ]
      }
    },
    {
      "type": "Feature",
      "properties": {
        "norad_id": 49008,
        "name": "FENGYUN 3E",
        "group": "weather",
        "lat": 62.31219020443559,
        "lon": -161.02437424861682,
        "alt_km": 819.3207602202247,
        "timestamp": "2025-12-27T13:34:48.933002+00:00",
        "meta_object_name": "FENGYUN 3E",
        "meta_object_id": "2021-062A",
        "meta_epoch": "2025-12-27T06:16:09.675840",
        "meta_mean_motion": 14.19883017,
        "meta_eccentricity": 0.00010559,
        "meta_inclination": 98.7483,
        "meta_ra_of_asc_node": 1.6103,
        "meta_arg_of_pericenter": 182.1067,
        "meta_mean_anomaly": 178.0105,
        "meta_ephemeris_type": 0,
        "meta_classification_type": "U",
        "meta_norad_cat_id": 49008,
        "meta_element_set_no": 999,
        "meta_rev_at_epoch": 23218,
        "meta_bstar": 0.00018071105,
        "meta_mean_motion_dot": 3.39e-06,
        "meta_mean_motion_ddot": 0,
        "tle_line1": "1 49008U 21062A   25361.26122310  .00000339  00000+0  18071-3 0  9990",
        "tle_line2": "2 49008  98.7483   1.6103 0001055 182.1067 178.0105 14.19883017232189"
      },
      "geometry": {
        "type": "Point",
        "coordinates": [
          -161.02437424861682,
          62.31219020443559
        ]
      }
    },
    {
      "type": "Feature",
      "properties": {
        "norad_id": 51850,
        "name": "GOES 18",
        "group": "weather",
        "lat": -0.021416699255833515,
        "lon": 162.98363224220205,
        "alt_km": 35788.03106473968,
        "timestamp": "2025-12-27T13:34:48.933013+00:00",
        "meta_object_name": "GOES 18",
        "meta_object_id": "2022-021A",
        "meta_epoch": "2025-12-27T05:30:10.904832",
        "meta_mean_motion": 1.00271611,
        "meta_eccentricity": 5.445e-05,
        "meta_inclination": 0.0401,
        "meta_ra_of_asc_node": 201.2118,
        "meta_arg_of_pericenter": 109.1379,
        "meta_mean_anomaly": 91.1546,
        "meta_ephemeris_type": 0,
        "meta_classification_type": "U",
        "meta_norad_cat_id": 51850,
        "meta_element_set_no": 999,
        "meta_rev_at_epoch": 486,
        "meta_bstar": 0,
        "meta_mean_motion_dot": 1.19e-06,
        "meta_mean_motion_ddot": 0,
        "tle_line1": "1 51850U 22021A   25361.22929288  .00000119  00000+0  00000+0 0  9994",
        "tle_line2": "2 51850   0.0401 201.2118 0000544 109.1379  91.1546  1.00271611  4867"
      },
      "geometry": {
        "type": "Point",
        "coordinates": [
          162.98363224220205,
          -0.021416699255833515
        ]
      }
    },
    {
      "type": "Feature",
      "properties": {
        "norad_id": 54234,
        "name": "NOAA 21 (JPSS-2)",
        "group": "weather",
        "lat": 73.6444449254873,
        "lon": 149.3360835428882,
        "alt_km": 820.0132740561103,
        "timestamp": "2025-12-27T13:34:48.933024+00:00",
        "meta_object_name": "NOAA 21 (JPSS-2)",
        "meta_object_id": "2022-150A",
        "meta_epoch": "2025-12-27T06:19:34.739328",
        "meta_mean_motion": 14.19528261,
        "meta_eccentricity": 0.00015371,
        "meta_inclination": 98.7479,
        "meta_ra_of_asc_node": 297.3919,
        "meta_arg_of_pericenter": 7.4165,
        "meta_mean_anomaly": 352.7034,
        "meta_ephemeris_type": 0,
        "meta_classification_type": "U",
        "meta_norad_cat_id": 54234,
        "meta_element_set_no": 999,
        "meta_rev_at_epoch": 16215,
        "meta_bstar": 7.8604583e-05,
        "meta_mean_motion_dot": 1.22e-06,
        "meta_mean_motion_ddot": 0,
        "tle_line1": "1 54234U 22150A   25361.26359652  .00000122  00000+0  78605-4 0  9997",
        "tle_line2": "2 54234  98.7479 297.3919 0001537   7.4165 352.7034 14.19528261162151"
      },
      "geometry": {
        "type": "Point",
        "coordinates": [
          149.3360835428882,
          73.6444449254873
        ]
      }
    },
    {
      "type": "Feature",
      "properties": {
        "norad_id": 54743,
        "name": "METEOSAT-12 (MTG-I1)",
        "group": "weather",
        "lat": -0.7179541684030476,
        "lon": -60.32572513466943,
        "alt_km": 35780.02702805757,
        "timestamp": "2025-12-27T13:34:48.933036+00:00",
        "meta_object_name": "METEOSAT-12 (MTG-I1)",
        "meta_object_id": "2022-170C",
        "meta_epoch": "2025-12-27T04:26:24.513216",
        "meta_mean_motion": 1.00270944,
        "meta_eccentricity": 0.00017583,
        "meta_inclination": 0.702,
        "meta_ra_of_asc_node": 25.996,
        "meta_arg_of_pericenter": 242.4895,
        "meta_mean_anomaly": 253.7092,
        "meta_ephemeris_type": 0,
        "meta_classification_type": "U",
        "meta_norad_cat_id": 54743,
        "meta_element_set_no": 999,
        "meta_rev_at_epoch": 1125,
        "meta_bstar": 0,
        "meta_mean_motion_dot": 1.4e-07,
        "meta_mean_motion_ddot": 0,
        "tle_line1": "1 54743U 22170C   25361.18500594  .00000014  00000+0  00000+0 0  9997",
        "tle_line2": "2 54743   0.7020  25.9960 0001758 242.4895 253.7092  1.00270944 11254"
      },
      "geometry": {
        "type": "Point",
        "coordinates": [
          -60.32572513466943,
          -0.7179541684030476
        ]
      }
    }
  ]
}